STARLINK-37518          
1 69259U 26117X   26160.91668981 -.01934391  10123-2 -60339-2 0  9995
2 69259  53.1545 279.4291 0000726  52.1109 277.3158 15.91008671  3007
STARLINK-37478          
1 69260U 26117Y   26160.91668981 -.01986392  10630-2 -62155-2 0  9996
2 69260  53.1547 279.4369 0000730  52.1315 273.5865 15.90954412  3006
STARLINK-37506          
1 69261U 26117Z   26160.91668981 -.02000363  10790-2 -61981-2 0  9996
2 69261  53.1544 279.4258 0000761  50.3759 280.5388 15.91147645  3008
STARLINK-37503          
1 69262U 26117AA  26160.91668981 -.02062439  11418-2 -64107-2 0  9990
2 69262  53.1547 279.4196 0000757  55.8088 277.8321 15.91093771  3009
STARLINK-37502          
1 69263U 26117AB  26160.91668981 -.01969947  10463-2 -61737-2 0  9995
2 69263  53.1545 279.4138 0000777  52.0880 284.0971 15.90921636  3005
STARLINK-37486          
1 69264U 26117AC  26160.91668981 -.01718560  00000+0 -62111-2 0  9999
2 69264  53.1543 279.4031 0000740  55.5308 285.9215 15.90689181  3006
STARLINK-37435          
1 69265U 26117AD  26160.91668981 -.01741983  00000+0 -66848-2 0  9996
2 69265  53.1543 279.3910 0000630  59.1053 287.6619 15.89570389  3001
STARLINK-37464          
1 69266U 26117AE  26160.91668981 -.01965081  00000+0 -76970-2 0  9991
2 69266  53.1544 279.3694 0000800  56.2929 300.8075 15.89040292  3000
KUIPER-00282            
1 69267U 26118A   26160.79827548 -.00033719  00000+0 -97707-3 0  9990
2 69267  51.8593  89.1581 0012162 155.5692 204.5872 15.34733656  2845
KUIPER-00383            
1 69268U 26118B   26160.79548220  .00017145  00000+0  50673-3 0  9992
2 69268  51.8588  89.1406 0010609 155.1254 205.0245 15.34985996  2846
KUIPER-00527            
1 69269U 26118C   26160.79283067 -.00000462  00000+0 -20812-5 0  9998
2 69269  51.8623  89.1237 0009787 152.6113 207.5391 15.35571541  2847
KUIPER-00562            
1 69270U 26118D   26160.77640147  .00023325  00000+0  61293-3 0  9991
2 69270  51.8714  89.0093 0002035  97.4966 262.6253 15.38489015  2846
KUIPER-00570            
1 69271U 26118E   26160.91668981 -.00008590  00000+0 -23507-3 0  9999
2 69271  51.8578  88.5519 0011760 157.9415 153.9718 15.35338090  2412
KUIPER-00572            
1 69272U 26118F   26160.78784508  .00023805  00000+0  65891-3 0  9995
2 69272  51.8671  89.0918 0007439 144.3981 215.7503 15.36845745  2849
KUIPER-00581            
1 69273U 26118G   26160.79008799  .00022824  00000+0  63860-3 0  9992
2 69273  51.8655  89.1074 0008887 149.1784 210.9726 15.36525354  2933
KUIPER-00584            
1 69274U 26118H   26160.79701973  .00020340  00000+0  59228-3 0  9991
2 69274  51.8604  89.1507 0011113 161.4227 198.7166 15.35327831  2844
KUIPER-00587            
1 69275U 26118J   26160.78956603  .00020876  00000+0  58572-3 0  9998
2 69275  51.8625  89.1039 0008318 149.8074 210.3394 15.36500129  2849
KUIPER-00590            
1 69276U 26118K   26160.78164807  .00020198  00000+0  54552-3 0  9997
2 69276  51.8682  89.0519 0004423 130.5359 229.6014 15.37728389  2844
KUIPER-00592            
1 69277U 26118L   26160.78017281  .00026562  00000+0  70824-3 0  9992
2 69277  51.8705  89.0395 0003803 109.8569 250.2828 15.37960215  2845
KUIPER-00593            
1 69278U 26118M   26160.78048382  .00020699  00000+0  55655-3 0  9999
2 69278  51.8708  89.0408 0004136 125.9777 234.1594 15.37851752  2907
KUIPER-00594            
1 69279U 26118N   26160.71036041  .00011942  00000+0  31973-3 0  9990
2 69279  51.8711  89.3208 0001202  65.2854 294.8258 15.38445376  2830
KUIPER-00595            
1 69280U 26118P   26160.77700747  .00023305  00000+0  61514-3 0  9999
2 69280  51.8709  89.0192 0002047 108.2578 251.8632 15.38351651  2872
KUIPER-00596            
1 69281U 26118Q   26160.79589575  .00000942  00000+0  37901-4 0  9992
2 69281  51.8555  89.1403 0010755 159.0542 201.0887 15.35531587  2849
KUIPER-00597            
1 69282U 26118R   26160.78633335  .00026404  00000+0  72781-3 0  9991
2 69282  51.8645  89.0831 0007200 142.1955 217.9538 15.36916986  2846
KUIPER-00599            
1 69283U 26118S   26160.78507803  .00020206  00000+0  55471-3 0  9993
2 69283  51.8688  89.0732 0006364 136.9235 223.2250 15.37213497  2845
KUIPER-00600            
1 69284U 26118T   26160.78909345  .00020838  00000+0  58240-3 0  9999
2 69284  51.8639  89.1012 0008956 144.5337 215.6246 15.36617159  2843
KUIPER-00601            
1 69285U 26118U   26160.78299170  .00024162  00000+0  65403-3 0  9991
2 69285  51.8696  89.0586 0004939 129.5153 230.6271 15.37544297  2846
KUIPER-00602            
1 69286U 26118V   26160.77954910  .00028738  00000+0  76445-3 0  9992
2 69286  51.8700  89.0375 0003369 126.3043 233.8256 15.37991155  2845
KUIPER-00603            
1 69287U 26118W   26160.78380593  .00022404  00000+0  61020-3 0  9991
2 69287  51.8663  89.0663 0005717 133.3089 226.8376 15.37395322  2840
KUIPER-00605            
1 69288U 26118X   26160.78716872  .00021714  00000+0  60026-3 0  9993
2 69288  51.8660  89.0884 0007722 138.7055 221.4516 15.36941276  2844
