OBJECT_NAME,OBJECT_ID,EPOCH,MEAN_MOTION,ECCENTRICITY,INCLINATION,RA_OF_ASC_NODE,ARG_OF_PERICENTER,MEAN_ANOMALY,EPHEMERIS_TYPE,CLASSIFICATION_TYPE,NORAD_CAT_ID,ELEMENT_SET_NO,REV_AT_EPOCH,BSTAR,MEAN_MOTION_DOT,MEAN_MOTION_DDOT
STARLINK-37518,2026-117X,2026-06-09T22:00:01.999584,15.91008671,.00007267,53.1545,279.4291,52.1109,277.3158,0,U,69259,999,300,-.60338626E-2,-.1934391E-1,.10123078E-2
STARLINK-37478,2026-117Y,2026-06-09T22:00:01.999584,15.90954412,.000073,53.1547,279.4369,52.1315,273.5865,0,U,69260,999,300,-.62155363E-2,-.1986392E-1,.10629626E-2
STARLINK-37506,2026-117Z,2026-06-09T22:00:01.999584,15.91147645,.00007618,53.1544,279.4258,50.3759,280.5388,0,U,69261,999,300,-.61980719E-2,-.2000363E-1,.10790088E-2
STARLINK-37503,2026-117AA,2026-06-09T22:00:01.999584,15.91093771,.00007578,53.1547,279.4196,55.8088,277.8321,0,U,69262,999,300,-.64106991E-2,-.2062439E-1,.11418017E-2
STARLINK-37502,2026-117AB,2026-06-09T22:00:01.999584,15.90921636,.0000777,53.1545,279.4138,52.0880,284.0971,0,U,69263,999,300,-.61737299E-2,-.1969947E-1,.10462917E-2
STARLINK-37486,2026-117AC,2026-06-09T22:00:01.999584,15.90689181,.00007401,53.1543,279.4031,55.5308,285.9215,0,U,69264,999,300,-.62110699E-2,-.171856E-1,0
STARLINK-37435,2026-117AD,2026-06-09T22:00:01.999584,15.89570389,.000063,53.1543,279.3910,59.1053,287.6619,0,U,69265,999,300,-.66848494E-2,-.1741983E-1,0
STARLINK-37464,2026-117AE,2026-06-09T22:00:01.999584,15.89040292,.00008008,53.1544,279.3694,56.2929,300.8075,0,U,69266,999,300,-.76970216E-2,-.1965081E-1,0
KUIPER-00282,2026-118A,2026-06-09T19:09:31.001472,15.34733656,.00121627,51.8593,89.1581,155.5692,204.5872,0,U,69267,999,284,-.97707008E-3,-.33719E-3,0
KUIPER-00383,2026-118B,2026-06-09T19:05:29.662080,15.34985996,.00106099,51.8588,89.1406,155.1254,205.0245,0,U,69268,999,284,.50673391E-3,.17145E-3,0
KUIPER-00527,2026-118C,2026-06-09T19:01:40.569888,15.35571541,.00097875,51.8623,89.1237,152.6113,207.5391,0,U,69269,999,284,-.2081163E-5,-.462E-5,0
KUIPER-00562,2026-118D,2026-06-09T18:38:01.087008,15.38489015,.00020353,51.8714,89.0093,97.4966,262.6253,0,U,69270,999,284,.61292859E-3,.23325E-3,0
KUIPER-00570,2026-118E,2026-06-09T22:00:01.999584,15.35338090,.00117601,51.8578,88.5519,157.9415,153.9718,0,U,69271,999,241,-.23506866E-3,-.859E-4,0
KUIPER-00572,2026-118F,2026-06-09T18:54:29.814912,15.36845745,.00074397,51.8671,89.0918,144.3981,215.7503,0,U,69272,999,284,.65891092E-3,.23805E-3,0
KUIPER-00581,2026-118G,2026-06-09T18:57:43.602336,15.36525354,.00088875,51.8655,89.1074,149.1784,210.9726,0,U,69273,999,293,.638598E-3,.22824E-3,0
KUIPER-00584,2026-118H,2026-06-09T19:07:42.504672,15.35327831,.00111137,51.8604,89.1507,161.4227,198.7166,0,U,69274,999,284,.59227569E-3,.2034E-3,0
KUIPER-00587,2026-118J,2026-06-09T18:56:58.504992,15.36500129,.00083189,51.8625,89.1039,149.8074,210.3394,0,U,69275,999,284,.58571583E-3,.20876E-3,0
KUIPER-00590,2026-118K,2026-06-09T18:45:34.393248,15.37728389,.00044236,51.8682,89.0519,130.5359,229.6014,0,U,69276,999,284,.54552037E-3,.20198E-3,0
KUIPER-00592,2026-118L,2026-06-09T18:43:26.930784,15.37960215,.00038032,51.8705,89.0395,109.8569,250.2828,0,U,69277,999,284,.70824317E-3,.26562E-3,0
KUIPER-00593,2026-118M,2026-06-09T18:43:53.802048,15.37851752,.00041367,51.8708,89.0408,125.9777,234.1594,0,U,69278,999,290,.55654551E-3,.20699E-3,0
KUIPER-00594,2026-118N,2026-06-09T17:02:55.139424,15.38445376,.00012021,51.8711,89.3208,65.2854,294.8258,0,U,69279,999,283,.31973321E-3,.11942E-3,0
KUIPER-00595,2026-118P,2026-06-09T18:38:53.445408,15.38351651,.00020479,51.8709,89.0192,108.2578,251.8632,0,U,69280,999,287,.61513821E-3,.23305E-3,0
KUIPER-00596,2026-118Q,2026-06-09T19:06:05.392800,15.35531587,.00107558,51.8555,89.1403,159.0542,201.0887,0,U,69281,999,284,.37901485E-4,.942E-5,0
KUIPER-00597,2026-118R,2026-06-09T18:52:19.201440,15.36916986,.00072004,51.8645,89.0831,142.1955,217.9538,0,U,69282,999,284,.72781464E-3,.26404E-3,0
KUIPER-00599,2026-118S,2026-06-09T18:50:30.741792,15.37213497,.00063644,51.8688,89.0732,136.9235,223.2250,0,U,69283,999,284,.55470565E-3,.20206E-3,0
KUIPER-00600,2026-118T,2026-06-09T18:56:17.674080,15.36617159,.00089566,51.8639,89.1012,144.5337,215.6246,0,U,69284,999,284,.58240253E-3,.20838E-3,0
KUIPER-00601,2026-118U,2026-06-09T18:47:30.482880,15.37544297,.00049399,51.8696,89.0586,129.5153,230.6271,0,U,69285,999,284,.65403133E-3,.24162E-3,0
KUIPER-00602,2026-118V,2026-06-09T18:42:33.042240,15.37991155,.00033694,51.8700,89.0375,126.3043,233.8256,0,U,69286,999,284,.76445479E-3,.28738E-3,0
KUIPER-00603,2026-118W,2026-06-09T18:48:40.832352,15.37395322,.00057171,51.8663,89.0663,133.3089,226.8376,0,U,69287,999,284,.6101977E-3,.22404E-3,0
KUIPER-00605,2026-118X,2026-06-09T18:53:31.377408,15.36941276,.00077228,51.8660,89.0884,138.7055,221.4516,0,U,69288,999,284,.60025705E-3,.21714E-3,0
